TROLL                   
1 62658U 25009BB  26068.22522958  .00013174  00000+0  48220-3 0  9994
2 62658  97.3932 150.7169 0001816  59.1850 300.9568 15.28164315118170
STARLINK-33874          
1 63825U 25092X   26068.29578196  .00018619  00000+0  68397-3 0  9991
2 63825  42.9998 174.8326 0001938 260.7571  99.3062 15.27601246 48608
